[
    {
        "OBJECT_NAME": "METOP-C",
        "OBJECT_ID": "2018-087A",
        "EPOCH": "2026-06-08T03:05:31.748352",
        "MEAN_MOTION": 14.21509778,
        "ECCENTRICITY": 0.0001422,
        "INCLINATION": 98.6646,
        "RA_OF_ASC_NODE": 218.8977,
        "ARG_OF_PERICENTER": 139.5747,
        "MEAN_ANOMALY": 220.5536,
        "EPHEMERIS_TYPE": 0,
        "CLASSIFICATION_TYPE": "U",
        "NORAD_CAT_ID": 43689,
        "ELEMENT_SET_NO": 999,
        "REV_AT_EPOCH": 39354,
        "BSTAR": 6.6666e-5,
        "MEAN_MOTION_DOT": 1.02e-6,
        "MEAN_MOTION_DDOT": 0
    },
    {
        "OBJECT_NAME": "GEO-KOMPSAT-2A",
        "OBJECT_ID": "2018-100A",
        "EPOCH": "2026-06-08T04:18:38.737728",
        "MEAN_MOTION": 1.00270998,
        "ECCENTRICITY": 0.000233,
        "INCLINATION": 0.0496,
        "RA_OF_ASC_NODE": 133.7231,
        "ARG_OF_PERICENTER": 310.3366,
        "MEAN_ANOMALY": 5.4409,
        "EPHEMERIS_TYPE": 0,
        "CLASSIFICATION_TYPE": "U",
        "NORAD_CAT_ID": 43823,
        "ELEMENT_SET_NO": 999,
        "REV_AT_EPOCH": 2753,
        "BSTAR": 0,
        "MEAN_MOTION_DOT": -3.28e-6,
        "MEAN_MOTION_DDOT": 0
    },
    {
        "OBJECT_NAME": "METEOR-M2 2",
        "OBJECT_ID": "2019-038A",
        "EPOCH": "2026-06-08T04:23:23.563104",
        "MEAN_MOTION": 14.24362375,
        "ECCENTRICITY": 0.0002309,
        "INCLINATION": 98.9147,
        "RA_OF_ASC_NODE": 146.3358,
        "ARG_OF_PERICENTER": 61.5914,
        "MEAN_ANOMALY": 298.5497,
        "EPHEMERIS_TYPE": 0,
        "CLASSIFICATION_TYPE": "U",
        "NORAD_CAT_ID": 44387,
        "ELEMENT_SET_NO": 999,
        "REV_AT_EPOCH": 36001,
        "BSTAR": -8.7183e-5,
        "MEAN_MOTION_DOT": -2.47e-6,
        "MEAN_MOTION_DDOT": 0
    },
    {
        "OBJECT_NAME": "ARKTIKA-M 1",
        "OBJECT_ID": "2021-016A",
        "EPOCH": "2026-06-02T00:56:25.095840",
        "MEAN_MOTION": 2.00628509,
        "ECCENTRICITY": 0.72832396,
        "INCLINATION": 63.2379,
        "RA_OF_ASC_NODE": 59.8266,
        "ARG_OF_PERICENTER": 269.8643,
        "MEAN_ANOMALY": 14.6915,
        "EPHEMERIS_TYPE": 0,
        "CLASSIFICATION_TYPE": "U",
        "NORAD_CAT_ID": 47719,
        "ELEMENT_SET_NO": 999,
        "REV_AT_EPOCH": 3848,
        "BSTAR": 0,
        "MEAN_MOTION_DOT": -2.0e-6,
        "MEAN_MOTION_DDOT": 0
    },
    {
        "OBJECT_NAME": "FENGYUN 3E",
        "OBJECT_ID": "2021-062A",
        "EPOCH": "2026-06-08T04:21:58.409856",
        "MEAN_MOTION": 14.19903505,
        "ECCENTRICITY": 0.0002741,
        "INCLINATION": 98.7497,
        "RA_OF_ASC_NODE": 162.6906,
        "ARG_OF_PERICENTER": 100.7056,
        "MEAN_ANOMALY": 259.4429,
        "EPHEMERIS_TYPE": 0,
        "CLASSIFICATION_TYPE": "U",
        "NORAD_CAT_ID": 49008,
        "ELEMENT_SET_NO": 999,
        "REV_AT_EPOCH": 25530,
        "BSTAR": -8.8176e-6,
        "MEAN_MOTION_DOT": -6.3e-7,
        "MEAN_MOTION_DDOT": 0
    },
    {
        "OBJECT_NAME": "GOES 18",
        "OBJECT_ID": "2022-021A",
        "EPOCH": "2026-06-08T02:27:55.075392",
        "MEAN_MOTION": 1.00272412,
        "ECCENTRICITY": 6.03e-5,
        "INCLINATION": 0.031,
        "RA_OF_ASC_NODE": 151.894,
        "ARG_OF_PERICENTER": 348.7076,
        "MEAN_ANOMALY": 15.8793,
        "EPHEMERIS_TYPE": 0,
        "CLASSIFICATION_TYPE": "U",
        "NORAD_CAT_ID": 51850,
        "ELEMENT_SET_NO": 999,
        "REV_AT_EPOCH": 650,
        "BSTAR": 0,
        "MEAN_MOTION_DOT": 1.12e-6,
        "MEAN_MOTION_DDOT": 0
    },
    {
        "OBJECT_NAME": "NOAA 21 (JPSS-2)",
        "OBJECT_ID": "2022-150A",
        "EPOCH": "2026-06-08T03:40:43.241664",
        "MEAN_MOTION": 14.1956392,
        "ECCENTRICITY": 0.0001131,
        "INCLINATION": 98.7058,
        "RA_OF_ASC_NODE": 98.0942,
        "ARG_OF_PERICENTER": 175.982,
        "MEAN_ANOMALY": 184.1365,
        "EPHEMERIS_TYPE": 0,
        "CLASSIFICATION_TYPE": "U",
        "NORAD_CAT_ID": 54234,
        "ELEMENT_SET_NO": 999,
        "REV_AT_EPOCH": 18526,
        "BSTAR": 5.3966e-5,
        "MEAN_MOTION_DOT": 7.0e-7,
        "MEAN_MOTION_DDOT": 0
    },
    {
        "OBJECT_NAME": "METEOSAT-12 (MTG-I1)",
        "OBJECT_ID": "2022-170C",
        "EPOCH": "2026-06-08T03:06:48.900096",
        "MEAN_MOTION": 1.00271614,
        "ECCENTRICITY": 0.0003422,
        "INCLINATION": 0.7276,
        "RA_OF_ASC_NODE": 21.3846,
        "ARG_OF_PERICENTER": 71.012,
        "MEAN_ANOMALY": 210.4054,
        "EPHEMERIS_TYPE": 0,
        "CLASSIFICATION_TYPE": "U",
        "NORAD_CAT_ID": 54743,
        "ELEMENT_SET_NO": 999,
        "REV_AT_EPOCH": 1288,
        "BSTAR": 0,
        "MEAN_MOTION_DOT": 7.0e-8,
        "MEAN_MOTION_DDOT": 0
    },
    {
        "OBJECT_NAME": "TIANMU-1 03",
        "OBJECT_ID": "2023-039A",
        "EPOCH": "2026-06-08T04:32:48.723648",
        "MEAN_MOTION": 15.47028533,
        "ECCENTRICITY": 0.0004104,
        "INCLINATION": 97.5239,
        "RA_OF_ASC_NODE": 332.8086,
        "ARG_OF_PERICENTER": 121.3153,
        "MEAN_ANOMALY": 238.8498,
        "EPHEMERIS_TYPE": 0,
        "CLASSIFICATION_TYPE": "U",
        "NORAD_CAT_ID": 55973,
        "ELEMENT_SET_NO": 999,
        "REV_AT_EPOCH": 17944,
        "BSTAR": 0.00026624,
        "MEAN_MOTION_DOT": 0.00013368,
        "MEAN_MOTION_DDOT": 0
    },
    {
        "OBJECT_NAME": "TIANMU-1 04",
        "OBJECT_ID": "2023-039B",
        "EPOCH": "2026-06-08T04:22:37.595712",
        "MEAN_MOTION": 15.47616995,
        "ECCENTRICITY": 0.000472,
        "INCLINATION": 97.5175,
        "RA_OF_ASC_NODE": 331.9544,
        "ARG_OF_PERICENTER": 118.4497,
        "MEAN_ANOMALY": 241.7228,
        "EPHEMERIS_TYPE": 0,
        "CLASSIFICATION_TYPE": "U",
        "NORAD_CAT_ID": 55974,
        "ELEMENT_SET_NO": 999,
        "REV_AT_EPOCH": 17945,
        "BSTAR": 0.0002701,
        "MEAN_MOTION_DOT": 0.00013845,
        "MEAN_MOTION_DDOT": 0
    },
    {
        "OBJECT_NAME": "TIANMU-1 05",
        "OBJECT_ID": "2023-039C",
        "EPOCH": "2026-06-08T04:04:29.659008",
        "MEAN_MOTION": 15.46954526,
        "ECCENTRICITY": 0.0003792,
        "INCLINATION": 97.5218,
        "RA_OF_ASC_NODE": 332.4067,
        "ARG_OF_PERICENTER": 135.9564,
        "MEAN_ANOMALY": 224.1987,
        "EPHEMERIS_TYPE": 0,
        "CLASSIFICATION_TYPE": "U",
        "NORAD_CAT_ID": 55975,
        "ELEMENT_SET_NO": 999,
        "REV_AT_EPOCH": 17942,
        "BSTAR": 0.00027791,
        "MEAN_MOTION_DOT": 0.00013923,
        "MEAN_MOTION_DDOT": 0
    },
    {
        "OBJECT_NAME": "TIANMU-1 06",
        "OBJECT_ID": "2023-039D",
        "EPOCH": "2026-06-08T04:26:42.081792",
        "MEAN_MOTION": 15.47524318,
        "ECCENTRICITY": 0.0004016,
        "INCLINATION": 97.5228,
        "RA_OF_ASC_NODE": 333.0492,
        "ARG_OF_PERICENTER": 132.7232,
        "MEAN_ANOMALY": 227.4356,
        "EPHEMERIS_TYPE": 0,
        "CLASSIFICATION_TYPE": "U",
        "NORAD_CAT_ID": 55976,
        "ELEMENT_SET_NO": 999,
        "REV_AT_EPOCH": 17945,
        "BSTAR": 0.00026761,
        "MEAN_MOTION_DOT": 0.00013671,
        "MEAN_MOTION_DDOT": 0
    }
]